0 COSMOS 2251 DEB
1 35643U 93036ANJ 13279.83285237  .00003626  00000-0  96604-3 0  4116
2 35643 074.0170 096.7073 0058850 238.3617 121.1793 14.47823321235447
0 COSMOS 2251 DEB
1 35643U 93036ANJ 13282.80401673  .00004689  00000-0  12458-2 0  4126
2 35643 074.0171 091.1406 0059124 232.1453 127.4349 14.47853545235876
0 COSMOS 2251 DEB
1 35643U 93036ANJ 13287.08791235  .00005985  00000-0  15867-2 0  4146
2 35643 074.0171 083.1142 0058750 223.3652 136.2877 14.47892084236495
0 COSMOS 2251 DEB
1 35643U 93036ANJ 13289.09162315  .00008710  00000-0  23034-2 0  4155
2 35643 074.0173 079.3593 0058685 219.2828 140.4067 14.47921061236788
0 COSMOS 2251 DEB
1 35643U 93036ANJ 13290.74983876  .00009310  00000-0  24607-2 0  4167
2 35643 074.0183 076.2516 0058473 215.8392 143.8838 14.47942389237020
0 COSMOS 2251 DEB
1 35643U 93036ANJ 13292.75348050  .00008162  00000-0  21574-2 0  4174
2 35643 074.0187 072.4965 0058402 211.8182 147.9445 14.47969326237316
